[{"OBJECT_NAME":"BLACKJACK ACES-2","OBJECT_ID":"2023-084Z","EPOCH":"2026-03-09T22:41:57.112224","MEAN_MOTION":15.20437873,"ECCENTRICITY":5.883e-5,"INCLINATION":97.6035,"RA_OF_ASC_NODE":203.5392,"ARG_OF_PERICENTER":31.4555,"MEAN_ANOMALY":328.6715,"EPHEMERIS_TYPE":0,"CLASSIFICATION_TYPE":"U","NORAD_CAT_ID":56955,"ELEMENT_SET_NO":999,"REV_AT_EPOCH":15211,"BSTAR":0.00051478919,"MEAN_MOTION_DOT":0.00011167,"MEAN_MOTION_DDOT":0},{"OBJECT_NAME":"TIANYI B","OBJECT_ID":"2025-103B","EPOCH":"2026-03-09T22:38:55.453632","MEAN_MOTION":15.19368035,"ECCENTRICITY":0.00030763,"INCLINATION":97.3871,"RA_OF_ASC_NODE":142.9815,"ARG_OF_PERICENTER":142.7793,"MEAN_ANOMALY":217.3656,"EPHEMERIS_TYPE":0,"CLASSIFICATION_TYPE":"U","NORAD_CAT_ID":64049,"ELEMENT_SET_NO":999,"REV_AT_EPOCH":4499,"BSTAR":0.00023230901,"MEAN_MOTION_DOT":4.846e-5,"MEAN_MOTION_DDOT":0}]
